[{"OBJECT_NAME":"PE2_FLT2  (TYVAK-0262)","OBJECT_ID":"2024-043G","EPOCH":"2026-03-09T22:11:35.814912","MEAN_MOTION":14.96566721,"ECCENTRICITY":0.00068512,"INCLINATION":97.8241,"RA_OF_ASC_NODE":199.4452,"ARG_OF_PERICENTER":28.1235,"MEAN_ANOMALY":332.0355,"EPHEMERIS_TYPE":0,"CLASSIFICATION_TYPE":"U","NORAD_CAT_ID":59104,"ELEMENT_SET_NO":999,"REV_AT_EPOCH":10980,"BSTAR":0.00036572059,"MEAN_MOTION_DOT":4.105e-5,"MEAN_MOTION_DDOT":0},{"OBJECT_NAME":"CENTAURI-8","OBJECT_ID":"2025-009DK","EPOCH":"2026-03-09T17:25:58.526112","MEAN_MOTION":14.9722833,"ECCENTRICITY":0.00030201,"INCLINATION":97.7096,"RA_OF_ASC_NODE":150.1876,"ARG_OF_PERICENTER":109.5881,"MEAN_ANOMALY":250.5667,"EPHEMERIS_TYPE":0,"CLASSIFICATION_TYPE":"U","NORAD_CAT_ID":62714,"ELEMENT_SET_NO":999,"REV_AT_EPOCH":6259,"BSTAR":0.00038891127,"MEAN_MOTION_DOT":4.445e-5,"MEAN_MOTION_DDOT":0}]
